NORAD_CAT_ID,OBJECT_NAME,OBJECT_TYPE,EPOCH,MEAN_MOTION,ECCENTRICITY,INCLINATION,RA_OF_ASC_NODE,ARG_OF_PERICENTER,MEAN_ANOMALY,BSTAR,MEAN_MOTION_DOT,MEAN_MOTION_DDOT,TLE_LINE0,TLE_LINE1,TLE_LINE2,SEMIMAJOR_AXIS,PERIOD,APOGEE,PERIGEE,DECAYED
52849.0,STARLINK-4197,PAYLOAD,2022-07-04 22:00:00,15.73265242,0.0002055,53.215,318.796,50.8003,118.5337,0.00028199,0.00039252,0.0,0 STARLINK-4197,1 52849U 22062V   22185.91667824  .00039252  00000-0  28199-3 0  9994,2 52849  53.2150 318.7960 0002055  50.8003 118.5337 15.73265242  1307,6727.709,91.529,350.957,348.19199999999995,0.0
52849.0,STARLINK-4197,PAYLOAD,2022-07-05 14:00:01,15.7333486,0.0001693,53.2152,315.4962,46.8935,300.4963,-0.001158,-0.00161003,0.0,0 STARLINK-4197,1 52849U 22062V   22186.58334491 -.00161003  00000-0 -11580-2 0  9996,2 52849  53.2152 315.4962 0001693  46.8935 300.4963 15.73334860  3347,6727.511,91.525,350.515,348.237,0.0
52849.0,STARLINK-4197,PAYLOAD,2022-07-05 22:00:00,15.73221556,0.0001673,53.2155,313.847,36.397,40.016,-0.0004778,-0.00067208,0.0,0 STARLINK-4197,1 52849U 22062V   22186.91667824 -.00067208  00000-0 -47780-3 0  9996,2 52849  53.2155 313.8470 0001673  36.3970  40.0160 15.73221556  1304,6727.834,91.532,350.824,348.5730000000001,0.0
52849.0,STARLINK-4197,PAYLOAD,2022-07-06 06:00:00,15.731501800000002,0.000138,53.2153,312.1953,35.1847,130.1468,0.0005381,0.00075418,0.0,0 STARLINK-4197,1 52849U 22062V   22187.25001157  .00075418  00000-0  53810-3 0  9996,2 52849  53.2153 312.1953 0001380  35.1847 130.1468 15.73150180  3448,6728.0369999999975,91.536,350.831,348.974,0.0
52849.0,STARLINK-4197,PAYLOAD,2022-07-06 14:00:01,15.73202479,0.000166,53.2153,310.5475,33.2235,221.0095,8.567399999999999e-05,0.00011421,0.0,0 STARLINK-4197,1 52849U 22062V   22187.58334491  .00011421  00000-0  85674-4 0  9990,2 52849  53.2153 310.5475 0001660  33.2235 221.0095 15.73202479  1308,6727.888000000001,91.533,350.87,348.636,0.0
52849.0,STARLINK-4197,PAYLOAD,2022-07-06 22:00:00,15.7330492,0.0001822,53.2158,308.8985,32.9762,310.1742,-0.0016802,-0.00231122,0.0,0 STARLINK-4197,1 52849U 22062V   22187.91667824 -.00231122  00000-0 -16802-2 0  9995,2 52849  53.2158 308.8985 0001822  32.9762 310.1742 15.73304920  3552,6727.596,91.527,350.68699999999984,348.235,0.0
52849.0,STARLINK-4197,PAYLOAD,2022-07-07 04:10:11,15.732653400000002,0.0001468,53.2154,307.6241,29.3839,330.7264,0.00015291,0.00020953,0.0,0 STARLINK-4197,1 52849U 22062V   22188.17374593  .00020953  00000-0  15291-3 0  9990,2 52849  53.2154 307.6241 0001468  29.3839 330.7264 15.73265340  3594,6727.709,91.529,350.56199999999984,348.586,0.0
52849.0,STARLINK-4197,PAYLOAD,2022-07-07 14:00:01,15.73158208,0.0001759,53.2149,305.5983,29.6638,131.5756,-0.00038202,-0.000538,0.0,0 STARLINK-4197,1 52849U 22062V   22188.58334491 -.00053800  00000-0 -38202-3 0  9994,2 52849  53.2149 305.5983 0001759  29.6638 131.5756 15.73158208  1305,6728.014,91.536,351.06300000000016,348.696,0.0
52849.0,STARLINK-4197,PAYLOAD,2022-07-07 20:56:29,15.7315009,0.0002698,53.2153,304.1657,31.4332,328.6849,-0.00031823,-0.00044959,0.0,0 STARLINK-4197,1 52849U 22062V   22188.87256417 -.00044959  00000-0 -31823-3 0  9994,2 52849  53.2153 304.1657 0002698  31.4332 328.6849 15.73150090  3213,6728.0369999999975,91.536,351.718,348.087,0.0
52849.0,STARLINK-4197,PAYLOAD,2022-07-08 06:00:02,15.731762300000002,0.0001753,53.2153,302.2972,33.5933,305.4989,0.0006904,0.00097305,0.0,0 STARLINK-4197,1 52849U 22062V   22189.25002315  .00097305  00000-0  69040-3 0  9996,2 52849  53.2153 302.2972 0001753  33.5933 305.4989 15.73176230  3765,6727.9630000000025,91.535,351.00699999999995,348.649,0.0
52849.0,STARLINK-4197,PAYLOAD,2022-07-08 14:00:01,15.73241967,0.0002006,53.2153,300.6497,29.9544,38.0127,0.00022452,0.00031064,0.0,0 STARLINK-4197,1 52849U 22062V   22189.58334491  .00031064  00000-0  22452-3 0  9991,2 52849  53.2153 300.6497 0002006  29.9544  38.0127 15.73241967  1309,6727.776,91.531,350.99,348.291,0.0
52849.0,STARLINK-4197,PAYLOAD,2022-07-08 22:00:01,15.73335355,0.0002059,53.2148,298.9993,27.8181,129.2728,0.00039101,0.00054937,0.0,0 STARLINK-4197,1 52849U 22062V   22189.91668981  .00054937  00000-0  39101-3 0  9995,2 52849  53.2148 298.9993 0002059  27.8181 129.2728 15.73335355  3863,6727.509,91.525,350.759,347.98900000000015,0.0
52849.0,STARLINK-4197,PAYLOAD,2022-07-09 06:00:00,15.73146375,0.0001939,53.2152,297.3485,36.608,209.2334,0.00058594,0.00082234,0.0,0 STARLINK-4197,1 52849U 22062V   22190.25001157  .00082234  00000-0  58594-3 0  9998,2 52849  53.2152 297.3485 0001939  36.6080 209.2334 15.73146375  3920,6728.0480000000025,91.536,351.218,348.608,0.0
52849.0,STARLINK-4197,PAYLOAD,2022-07-09 14:00:01,15.73314308,0.0002184,53.216,295.7015,39.2882,295.4341,-0.0028056,-0.00379079,0.0,0 STARLINK-4197,1 52849U 22062V   22190.58334491 -.00379079  00000-0 -28056-2 0  9991,2 52849  53.2160 295.7015 0002184  39.2882 295.4341 15.73314308  1300,6727.569,91.527,350.904,347.965,0.0
52849.0,STARLINK-4197,PAYLOAD,2022-07-09 16:00:00,15.73187825,0.0002206,53.2163,295.2897,38.8964,48.0903,-0.0014466,-0.00198846,0.0,0 STARLINK-4197,1 52849U 22062V   22190.66667824 -.00198846  00000-0 -14466-2 0  9990,2 52849  53.2163 295.2897 0002206  38.8964  48.0903 15.73187825  3981,6727.93,91.534,351.279,348.311,0.0
52849.0,STARLINK-4197,PAYLOAD,2022-07-09 20:00:01,15.73167667,0.0002097,53.215,294.4638,25.0468,286.3893,8.1293e-05,0.00010788,0.0,0 STARLINK-4197,1 52849U 22062V   22190.83334491  .00010788  00000-0  81293-4 0  9990,2 52849  53.2150 294.4638 0002097  25.0468 286.3893 15.73167667  1307,6727.986999999999,91.535,351.26300000000015,348.441,0.0
52849.0,STARLINK-4197,PAYLOAD,2022-07-10 14:00:01,15.73225366,0.000222,53.2157,290.7524,25.8065,215.7034,1.2623e-05,1.152e-05,0.0,0 STARLINK-4197,1 52849U 22062V   22191.58334491  .00001152  00000-0  12623-4 0  9999,2 52849  53.2157 290.7524 0002220  25.8065 215.7034 15.73225366  4134,6727.823,91.532,351.181,348.194,0.0
52849.0,STARLINK-4197,PAYLOAD,2022-07-10 22:00:00,15.73239836,0.0002126,53.2154,289.1019,21.9657,308.5143,-0.00044415,-0.00062605,0.0,0 STARLINK-4197,1 52849U 22062V   22191.91667824 -.00062605  00000-0 -44415-3 0  9990,2 52849  53.2154 289.1019 0002126  21.9657 308.5143 15.73239836  1306,6727.781999999997,91.531,351.077,348.216,0.0
52849.0,STARLINK-4197,PAYLOAD,2022-07-11 14:00:01,15.73176195,0.0002306,53.2156,285.8039,23.9735,124.4045,0.00017844,0.00024471,0.0,0 STARLINK-4197,1 52849U 22062V   22192.58334491  .00024471  00000-0  17844-3 0  9998,2 52849  53.2156 285.8039 0002306  23.9735 124.4045 15.73176195  4286,6727.9630000000025,91.535,351.38,348.277,0.0
52849.0,STARLINK-4197,PAYLOAD,2022-07-11 22:00:00,15.73215314,0.000226,53.2155,284.1534,21.526,215.7753,-0.00048839,-0.0006866,0.0,0 STARLINK-4197,1 52849U 22062V   22192.91667824 -.00068660  00000-0 -48839-3 0  9992,2 52849  53.2155 284.1534 0002260  21.5260 215.7753 15.73215314  1300,6727.852,91.532,351.237,348.196,0.0
52849.0,STARLINK-4197,PAYLOAD,2022-07-12 14:00:01,15.73167048,0.000258,53.2159,280.8555,25.6715,29.5005,0.00041387,0.00057787,0.0,0 STARLINK-4197,1 52849U 22062V   22193.58334491  .00057787  00000-0  41387-3 0  9994,2 52849  53.2159 280.8555 0002580  25.6715  29.5005 15.73167048  4444,6727.989000000001,91.535,351.59,348.11800000000005,0.0
52849.0,STARLINK-4197,PAYLOAD,2022-07-12 22:00:00,15.73242117,0.0002494,53.2155,279.2049,24.6414,119.4494,0.00012732,0.00017317,0.0,0 STARLINK-4197,1 52849U 22062V   22193.91667824  .00017317  00000-0  12732-3 0  9997,2 52849  53.2155 279.2049 0002494  24.6414 119.4494 15.73242117  1303,6727.775,91.531,351.3180000000001,347.962,0.0
52849.0,STARLINK-4197,PAYLOAD,2022-07-13 14:00:01,15.73177499,0.0002545,53.2153,275.9074,17.5784,304.4428,-0.00025352,-0.00036021,0.0,0 STARLINK-4197,1 52849U 22062V   22194.58334491 -.00036021  00000-0 -25352-3 0  9999,2 52849  53.2153 275.9074 0002545  17.5784 304.4428 15.73177499  4609,6727.959,91.534,351.537,348.112,0.0
52849.0,STARLINK-4197,PAYLOAD,2022-07-13 22:00:00,15.7314394,0.0002507,53.2153,274.2567,20.5964,30.3108,8.289100000000002e-07,-5.05e-06,0.0,0 STARLINK-4197,1 52849U 22062V   22194.91667824 -.00000505  00000-0  82891-6 0  9996,2 52849  53.2153 274.2567 0002507  20.5964  30.3108 15.73143940  1308,6728.055,91.536,351.607,348.233,0.0
52849.0,STARLINK-4197,PAYLOAD,2022-07-14 08:00:01,15.73176215,0.0002541,53.2155,272.1949,23.1143,228.8605,0.0001663,0.0002276,0.0,0 STARLINK-4197,1 52849U 22062V   22195.33334491  .00022760  00000-0  16630-3 0  9995,2 52849  53.2155 272.1949 0002541  23.1143 228.8605 15.73176215  4723,6727.9630000000025,91.535,351.538,348.11800000000005,0.0
52849.0,STARLINK-4197,PAYLOAD,2022-07-14 14:00:01,15.73184108,0.0002779,53.2154,270.9593,20.8917,207.755,8.668e-05,0.00011553,0.0,0 STARLINK-4197,1 52849U 22062V   22195.58334491  .00011553  00000-0  86680-4 0  9993,2 52849  53.2154 270.9593 0002779  20.8917 207.7550 15.73184108  1305,6727.94,91.534,351.675,347.936,0.0
52849.0,STARLINK-4197,PAYLOAD,2022-07-14 22:00:00,15.73180157,0.0002619,53.2149,269.3083,18.9805,298.5903,-4.7435e-05,-7.269e-05,0.0,0 STARLINK-4197,1 52849U 22062V   22195.91667824 -.00007269  00000-0 -47435-4 0  9995,2 52849  53.2149 269.3083 0002619  18.9805 298.5903 15.73180157  4811,6727.9519999999975,91.534,351.579,348.055,0.0
52849.0,STARLINK-4197,PAYLOAD,2022-07-15 14:00:01,15.73218215,0.0002822,53.2145,266.0111,16.9461,118.4589,0.0002487,0.00034457,0.0,0 STARLINK-4197,1 52849U 22062V   22196.58334491  .00034457  00000-0  24870-3 0  9994,2 52849  53.2145 266.0111 0002822  16.9461 118.4589 15.73218215  4913,6727.843000000003,91.532,351.607,347.81,0.0
52849.0,STARLINK-4197,PAYLOAD,2022-07-15 22:00:00,15.73219413,0.000269,53.2145,264.3597,15.0134,209.3679,-4.8642e-05,-7.45e-05,0.0,0 STARLINK-4197,1 52849U 22062V   22196.91667824 -.00007450  00000-0 -48642-4 0  9999,2 52849  53.2145 264.3597 0002690  15.0134 209.3679 15.73219413  1303,6727.84,91.532,351.515,347.895,0.0
